{
  "type": "FeatureCollection",
  "features": [
    {
      "type": "Feature",
      "properties": {
        "norad_id": 34478,
        "name": "COSMOS 2251 DEB",
        "group": "cosmos-2251-debris",
        "lat": 3.3303037568540557,
        "lon": -168.9274466847582,
        "alt_km": 532.2354958767974,
        "timestamp": "2025-12-10T05:46:14.221164+00:00",
        "meta_object_name": "COSMOS 2251 DEB",
        "meta_object_id": "1993-036TX",
        "meta_epoch": "2025-12-09T03:45:23.494752",
        "meta_mean_motion": 15.07546679,
        "meta_eccentricity": 0.00354336,
        "meta_inclination": 74.0399,
        "meta_ra_of_asc_node": 14.2543,
        "meta_arg_of_pericenter": 236.044,
        "meta_mean_anomaly": 180.3943,
        "meta_ephemeris_type": 0,
        "meta_classification_type": "U",
        "meta_norad_cat_id": 34478,
        "meta_element_set_no": 999,
        "meta_rev_at_epoch": 88919,
        "meta_bstar": 0.0034604726,
        "meta_mean_motion_dot": 0.00053718,
        "meta_mean_motion_ddot": 0,
        "tle_line1": "1 34478U 93036TX  25343.15652193  .00053718  00000+0  34605-2 0  9999",
        "tle_line2": "2 34478  74.0399  14.2543 0035433 236.0440 180.3943 15.07546679889199"
      },
      "geometry": {
        "type": "Point",
        "coordinates": [
          -168.9274466847582,
          3.3303037568540557
        ]
      }
    },
    {
      "type": "Feature",
      "properties": {
        "norad_id": 34481,
        "name": "COSMOS 2251 DEB",
        "group": "cosmos-2251-debris",
        "lat": 73.8753692244464,
        "lon": 141.63571630998945,
        "alt_km": 817.0764623166278,
        "timestamp": "2025-12-10T05:46:14.221175+00:00",
        "meta_object_name": "COSMOS 2251 DEB",
        "meta_object_id": "1993-036UA",
        "meta_epoch": "2025-12-09T06:11:03.132960",
        "meta_mean_motion": 14.32530215,
        "meta_eccentricity": 0.0070831,
        "meta_inclination": 73.9805,
        "meta_ra_of_asc_node": 59.836,
        "meta_arg_of_pericenter": 234.8477,
        "meta_mean_anomaly": 187.628,
        "meta_ephemeris_type": 0,
        "meta_classification_type": "U",
        "meta_norad_cat_id": 34481,
        "meta_element_set_no": 999,
        "meta_rev_at_epoch": 87399,
        "meta_bstar": 0.0011903,
        "meta_mean_motion_dot": 3.293e-05,
        "meta_mean_motion_ddot": 0,
        "tle_line1": "1 34481U 93036UA  25343.25767515  .00003293  00000+0  11903-2 0  9998",
        "tle_line2": "2 34481  73.9805  59.8360 0070831 234.8477 187.6280 14.32530215873993"
      },
      "geometry": {
        "type": "Point",
        "coordinates": [
          141.63571630998945,
          73.8753692244464
        ]
      }
    },
    {
      "type": "Feature",
      "properties": {
        "norad_id": 34482,
        "name": "COSMOS 2251 DEB",
        "group": "cosmos-2251-debris",
        "lat": -64.54959689956901,
        "lon": -168.54293786887234,
        "alt_km": 638.9479873355331,
        "timestamp": "2025-12-10T05:46:14.221185+00:00",
        "meta_object_name": "COSMOS 2251 DEB",
        "meta_object_id": "1993-036UB",
        "meta_epoch": "2025-12-09T02:59:15.251712",
        "meta_mean_motion": 14.6905885,
        "meta_eccentricity": 0.00453063,
        "meta_inclination": 74.0366,
        "meta_ra_of_asc_node": 230.5914,
        "meta_arg_of_pericenter": 291.2458,
        "meta_mean_anomaly": 219.3701,
        "meta_ephemeris_type": 0,
        "meta_classification_type": "U",
        "meta_norad_cat_id": 34482,
        "meta_element_set_no": 999,
        "meta_rev_at_epoch": 88134,
        "meta_bstar": 0.0022791813,
        "meta_mean_motion_dot": 0.00013586,
        "meta_mean_motion_ddot": 0,
        "tle_line1": "1 34482U 93036UB  25343.12448208  .00013586  00000+0  22792-2 0  9994",
        "tle_line2": "2 34482  74.0366 230.5914 0045306 291.2458 219.3701 14.69058850881345"
      },
      "geometry": {
        "type": "Point",
        "coordinates": [
          -168.54293786887234,
          -64.54959689956901
        ]
      }
    },
    {
      "type": "Feature",
      "properties": {
        "norad_id": 34544,
        "name": "COSMOS 2251 DEB",
        "group": "cosmos-2251-debris",
        "lat": 55.59247611350052,
        "lon": 3.1623663113501084,
        "alt_km": 1166.6602969512096,
        "timestamp": "2025-12-10T05:46:14.221195+00:00",
        "meta_object_name": "COSMOS 2251 DEB",
        "meta_object_id": "1993-036UE",
        "meta_epoch": "2025-12-08T02:32:15.563616",
        "meta_mean_motion": 13.54658928,
        "meta_eccentricity": 0.03844146,
        "meta_inclination": 73.9149,
        "meta_ra_of_asc_node": 211.5315,
        "meta_arg_of_pericenter": 240.8263,
        "meta_mean_anomaly": 277.3195,
        "meta_ephemeris_type": 0,
        "meta_classification_type": "U",
        "meta_norad_cat_id": 34544,
        "meta_element_set_no": 999,
        "meta_rev_at_epoch": 82819,
        "meta_bstar": 0.00035904708,
        "meta_mean_motion_dot": 3.7e-06,
        "meta_mean_motion_ddot": 0,
        "tle_line1": "1 34544U 93036UE  25342.10573569  .00000370  00000+0  35905-3 0  9997",
        "tle_line2": "2 34544  73.9149 211.5315 0384414 240.8263 277.3195 13.54658928828195"
      },
      "geometry": {
        "type": "Point",
        "coordinates": [
          3.1623663113501084,
          55.59247611350052
        ]
      }
    },
    {
      "type": "Feature",
      "properties": {
        "norad_id": 34546,
        "name": "COSMOS 2251 DEB",
        "group": "cosmos-2251-debris",
        "lat": -20.76049799144388,
        "lon": -112.38497193200132,
        "alt_km": 730.3147329601961,
        "timestamp": "2025-12-10T05:46:14.221205+00:00",
        "meta_object_name": "COSMOS 2251 DEB",
        "meta_object_id": "1993-036UG",
        "meta_epoch": "2025-12-09T12:25:15.004992",
        "meta_mean_motion": 14.45389745,
        "meta_eccentricity": 0.0021869,
        "meta_inclination": 74.0312,
        "meta_ra_of_asc_node": 255.1938,
        "meta_arg_of_pericenter": 329.2624,
        "meta_mean_anomaly": 209.105,
        "meta_ephemeris_type": 0,
        "meta_classification_type": "U",
        "meta_norad_cat_id": 34546,
        "meta_element_set_no": 999,
        "meta_rev_at_epoch": 87979,
        "meta_bstar": 0.0011371883,
        "meta_mean_motion_dot": 3.987e-05,
        "meta_mean_motion_ddot": 0,
        "tle_line1": "1 34546U 93036UG  25343.51753478  .00003987  00000+0  11372-2 0  9992",
        "tle_line2": "2 34546  74.0312 255.1938 0021869 329.2624 209.1050 14.45389745879795"
      },
      "geometry": {
        "type": "Point",
        "coordinates": [
          -112.38497193200132,
          -20.76049799144388
        ]
      }
    },
    {
      "type": "Feature",
      "properties": {
        "norad_id": 34547,
        "name": "COSMOS 2251 DEB",
        "group": "cosmos-2251-debris",
        "lat": -67.89664516613631,
        "lon": 60.75133203742209,
        "alt_km": 663.0050416802478,
        "timestamp": "2025-12-10T05:46:14.221216+00:00",
        "meta_object_name": "COSMOS 2251 DEB",
        "meta_object_id": "1993-036UH",
        "meta_epoch": "2025-12-09T18:41:36.261024",
        "meta_mean_motion": 14.72220503,
        "meta_eccentricity": 0.0017825,
        "meta_inclination": 74.0304,
        "meta_ra_of_asc_node": 106.4875,
        "meta_arg_of_pericenter": 186.4351,
        "meta_mean_anomaly": 173.6595,
        "meta_ephemeris_type": 0,
        "meta_classification_type": "U",
        "meta_norad_cat_id": 34547,
        "meta_element_set_no": 999,
        "meta_rev_at_epoch": 88478,
        "meta_bstar": 0.0032348,
        "meta_mean_motion_dot": 0.00020492,
        "meta_mean_motion_ddot": 0,
        "tle_line1": "1 34547U 93036UH  25343.77889191  .00020492  00000+0  32348-2 0  9999",
        "tle_line2": "2 34547  74.0304 106.4875 0017825 186.4351 173.6595 14.72220503884782"
      },
      "geometry": {
        "type": "Point",
        "coordinates": [
          60.75133203742209,
          -67.89664516613631
        ]
      }
    },
    {
      "type": "Feature",
      "properties": {
        "norad_id": 34553,
        "name": "COSMOS 2251 DEB",
        "group": "cosmos-2251-debris",
        "lat": -44.71328313547721,
        "lon": -179.83041636041239,
        "alt_km": 696.2993480268169,
        "timestamp": "2025-12-10T05:46:14.221226+00:00",
        "meta_object_name": "COSMOS 2251 DEB",
        "meta_object_id": "1993-036UP",
        "meta_epoch": "2025-12-09T17:19:08.494176",
        "meta_mean_motion": 14.57677841,
        "meta_eccentricity": 0.0019449,
        "meta_inclination": 74.0244,
        "meta_ra_of_asc_node": 197.6326,
        "meta_arg_of_pericenter": 275.2308,
        "meta_mean_anomaly": 196.2198,
        "meta_ephemeris_type": 0,
        "meta_classification_type": "U",
        "meta_norad_cat_id": 34553,
        "meta_element_set_no": 999,
        "meta_rev_at_epoch": 88052,
        "meta_bstar": 0.001603,
        "meta_mean_motion_dot": 7.311e-05,
        "meta_mean_motion_ddot": 0,
        "tle_line1": "1 34553U 93036UP  25343.72162609  .00007311  00000+0  16030-2 0  9994",
        "tle_line2": "2 34553  74.0244 197.6326 0019449 275.2308 196.2198 14.57677841880520"
      },
      "geometry": {
        "type": "Point",
        "coordinates": [
          -179.83041636041239,
          -44.71328313547721
        ]
      }
    }
  ]
}